STARLINK-31798          
1 59635U 24082E   24137.91667824 -.00754736  00000+0 -39204-2 0  9997
2 59635  43.0008 312.2085 0001880 274.6151 244.3630 15.81928628  3206
STARLINK-31802          
1 59636U 24082F   24137.91667824 -.00779480  00000+0 -40519-2 0  9992
2 59636  43.0006 312.1797 0001568 281.8027 248.6208 15.81977098  3202
STARLINK-31791          
1 59637U 24082G   24137.91667824 -.00757405  00000+0 -39304-2 0  9996
2 59637  43.0007 312.1981 0001891 281.4862 241.6454 15.81955978  3200
STARLINK-31727          
1 59638U 24082H   24137.91667824 -.00764806  00000+0 -39696-2 0  9994
2 59638  43.0008 312.1927 0001748 281.1484 244.1522 15.81971312  3259
STARLINK-31807          
1 59639U 24082J   24138.16667824 -.00881830  00000+0 -47263-2 0  9999
2 59639  43.0005 310.6385 0001549 283.9553 234.4598 15.81583487  3228
STARLINK-31806          
1 59640U 24082K   24137.91667824 -.00773814  00000+0 -40223-2 0  9994
2 59640  43.0008 312.1850 0001959 276.7805 251.5781 15.81960291  3206
STARLINK-31804          
1 59641U 24082L   24138.16667824 -.00882147  00000+0 -47213-2 0  9999
2 59641  43.0007 310.6342 0001861 278.1287 241.9437 15.81611337  3235
STARLINK-31660          
1 59642U 24082M   24138.16667824 -.01232050  00000+0 -60533-2 0  9993
2 59642  42.9999 310.3191 0001822 273.6061  11.0834 15.83824898  3428
STARLINK-31800          
1 59643U 24082N   24138.16667824 -.00884605  00000+0 -47280-2 0  9996
2 59643  43.0004 310.6302 0001934 279.5487 241.9978 15.81645805  3336
STARLINK-31789          
1 59644U 24082P   24137.91667824 -.00799858  00000+0 -41576-2 0  9996
2 59644  43.0005 312.1510 0001723 279.0222 262.6345 15.82027370  3402
STARLINK-31795          
1 59645U 24082Q   24138.16667824 -.00900924  00000+0 -48480-2 0  9994
2 59645  43.0001 310.5919 0000944 284.3406 252.1607 15.81552303  3224
STARLINK-31796          
1 59646U 24082R   24137.91667824 -.00809240  00000+0 -42071-2 0  9996
2 59646  43.0003 312.1392 0001813 283.5564 262.5276 15.82046129  3369
STARLINK-31801          
1 59647U 24082S   24137.91667824 -.00826815  00000+0 -43035-2 0  9995
2 59647  43.0001 312.1214 0001580 275.7236 277.3995 15.82067182  3253
STARLINK-31790          
1 59648U 24082T   24138.16667824  .00571400  00000+0  17929-2 0  9992
2 59648  42.9997 310.4868 0005931 288.2012 290.0969 15.89224476  3225
STARLINK-31803          
1 59649U 24082U   24137.91667824 -.00802965  00000+0 -41724-2 0  9990
2 59649  43.0002 312.1452 0001892 276.3938 267.3013 15.82040354  3254
STARLINK-31787          
1 59650U 24082V   24137.91667824 -.00843003  00000+0 -43951-2 0  9994
2 59650  43.0001 312.1146 0001824 274.2006 281.5876 15.82069733  3395
STARLINK-31277          
1 59651U 24082W   24137.91667824 -.00818328  00000+0 -42595-2 0  9990
2 59651  43.0004 312.1329 0001734 273.6849 275.1022 15.82043786  3404
STARLINK-31799          
1 59652U 24082X   24137.91667824 -.00847194  00000+0 -44193-2 0  9990
2 59652  43.0002 312.1025 0001601 263.9752 296.6566 15.82071064  3258
STARLINK-31764          
1 59653U 24082Y   24138.16667824 -.00941796  00000+0 -50643-2 0  9999
2 59653  42.9999 310.5640 0001652 272.5168 275.2673 15.81664721  3428
STARLINK-31589          
1 59654U 24084A   24137.91667824 -.01152531  00000+0 -66860-2 0  9994
2 59654  43.0056 213.0111 0001672 281.4835  65.6372 15.80138881  2818
STARLINK-31665          
1 59655U 24084B   24137.91667824 -.01152989  00000+0 -66736-2 0  9994
2 59655  43.0055 213.0057 0001271 282.1997  67.0978 15.80192662  2757
STARLINK-31912          
1 59656U 24084C   24137.91667824 -.01153308  00000+0 -66536-2 0  9999
2 59656  43.0054 212.9992 0001838 274.7041  77.1047 15.80257992  2756
STARLINK-31904          
1 59657U 24084D   24137.91667824 -.01153278  00000+0 -66327-2 0  9994
2 59657  43.0054 212.9921 0001504 281.5175  73.1055 15.80328680  2717
STARLINK-31858          
1 59658U 24084E   24137.91667824 -.01157319  00000+0 -65917-2 0  9999
2 59658  43.0060 212.9699 0001750 281.6256  81.8635 15.80543538  2756
STARLINK-31881          
1 59659U 24084F   24137.91667824 -.01156737  00000+0 -66423-2 0  9996
2 59659  43.0053 212.9880 0001730 277.7282  78.4689 15.80367281  2754
STARLINK-31885          
1 59660U 24084G   24137.91667824 -.01157007  00000+0 -66254-2 0  9991
2 59660  43.0053 212.9817 0001588 281.5402  77.1751 15.80429230  2753
STARLINK-31880          
1 59661U 24084H   24138.16667824 -.01099222  00000+0 -64358-2 0  9997
2 59661  43.0047 211.4493 0001295 270.7251  73.7211 15.79824747  2784
STARLINK-31886          
1 59662U 24084J   24137.91667824 -.01156352  00000+0 -65680-2 0  9997
2 59662  43.0052 212.9632 0001689 281.9474  84.0374 15.80601419  2753
STARLINK-31909          
1 59663U 24084K   24137.91667824 -.01038751  00000+0 -51788-2 0  9994
2 59663  43.0049 212.8623 0001991 273.2938 132.7066 15.83497487  2765
STARLINK-31910          
1 59664U 24084L   24137.91667824 -.01153859  00000+0 -65203-2 0  9999
2 59664  43.0051 212.9512 0001716 282.2198  88.4084 15.80705642  2758
STARLINK-31894          
1 59665U 24084M   24137.91667824 -.01152658  00000+0 -64948-2 0  9991
2 59665  43.0050 212.9445 0001597 283.4549  89.8597 15.80765922  2754
STARLINK-31902          
1 59666U 24084N   24137.91667824 -.01156053  00000+0 -64982-2 0  9993
2 59666  43.0049 212.9382 0001745 277.3212  98.4672 15.80823605  2750
STARLINK-31913          
1 59667U 24084P   24137.91667824 -.01154475  00000+0 -64743-2 0  9995
2 59667  43.0050 212.9324 0001714 275.9492 102.0611 15.80870099  2753
STARLINK-31866          
1 59668U 24084Q   24137.91667824 -.01156155  00000+0 -64418-2 0  9992
2 59668  43.0050 212.9162 0001882 272.7777 111.7790 15.81010692  2820
STARLINK-31917          
1 59669U 24084R   24137.91667824 -.01156079  00000+0 -64741-2 0  9997
2 59669  43.0047 212.9279 0001338 283.0134  96.7252 15.80907990  2756
STARLINK-31860          
1 59670U 24084S   24137.91667824 -.01153965  00000+0 -64024-2 0  9994
2 59670  43.0046 212.9042 0001281 281.0703 108.1029 15.81102813  2754
STARLINK-31854          
1 59671U 24084T   24138.16667824 -.01085765  00000+0 -51361-2 0  9995
2 59671  43.0042 211.1954 0001373 280.9143 164.4366 15.84710117  2789
STARLINK-31842          
1 59672U 24084U   24137.91667824 -.01156133  00000+0 -64254-2 0  9991
2 59672  43.0047 212.9093 0001925 267.2243 119.9173 15.81064192  2750
STARLINK-31871          
1 59673U 24084V   24138.16667824 -.01101274  00000+0 -62503-2 0  9991
2 59673  43.0042 211.3709 0001569 277.0813  98.4293 15.80497583  2868
STARLINK-31875          
1 59674U 24084W   24137.91667824 -.01152484  00000+0 -63652-2 0  9999
2 59674  43.0049 212.8935 0001825 279.7346 113.8132 15.81190751  2826
STARLINK-31877          
1 59675U 24084X   24137.91667824 -.01154611  00000+0 -63669-2 0  9992
2 59675  43.0047 212.8883 0001467 283.7651 111.8589 15.81232905  2757
STARLINK-31884          
1 59676U 24084Y   24137.91667824 -.01083017  00000+0 -50699-2 0  9993
2 59676  43.0047 212.7684 0001561 279.3100 164.2515 15.84915231  2823
2024-085A               
1 59677U 24085A   24137.68504221  .00017506  00000+0  78181-3 0  9994
2 59677  97.4046 212.3682 0013512 226.7321 284.9347 15.21334771  1456
2024-085B               
1 59678U 24085B   24134.38894922  .00025112  00000+0  10982-2 0  9995
2 59678  97.4092 209.1422 0014133 252.4797 234.9572 15.21970806   940
2024-085C               
1 59679U 24085C   24134.91344787  .00007613  00000+0  34201-3 0  9991
2 59679  97.4045 209.6447 0013514 241.2103 224.9339 15.21353531  1020
2024-085D               
1 59680U 24085D   24137.21302875  .00037317  00000+0  16434-2 0  9992
2 59680  97.4036 211.9061 0013781 228.5150 223.7394 15.21648604  1370
2024-085E               
1 59681U 24085E   24137.20598429  .00017057  00000+0  50079-3 0  9997
2 59681  97.3727 212.0532 0055315 322.7142 128.5497 15.33666030  1382
STARLINK-32108          
1 59682U 24086A   24138.16667824 -.01594972  00000+0 -12241-1 0  9997
2 59682  43.0024 233.6552 0001299 299.0195  75.9643 15.73922309  2420
STARLINK-32080          
1 59683U 24086B   24138.16667824 -.01637585  00000+0 -12593-1 0  9996
2 59683  43.0021 233.6494 0001411 272.5407 104.4303 15.73951203  2427
STARLINK-32091          
1 59684U 24086C   24138.16667824 -.01443552  00000+0 -11229-1 0  9991
2 59684  43.0021 233.6442 0001688 277.9509 101.1241 15.73794007  2421
STARLINK-32085          
1 59685U 24086D   24138.16667824 -.01439510  00000+0 -11194-1 0  9992
2 59685  43.0018 233.6393 0001721 300.5931  80.4815 15.73792360  2463
STARLINK-32100          
1 59686U 24086E   24138.16667824 -.01434358  00000+0 -11164-1 0  9995
2 59686  43.0019 233.6344 0001253 281.3719 101.7335 15.73765952  2451
STARLINK-32089          
1 59687U 24086F   24138.16667824 -.02029471  00000+0 -15621-1 0  9995
2 59687  43.0020 233.6292 0001712 279.6086 105.6604 15.74083216  2429
STARLINK-32103          
1 59688U 24086G   24138.16667824 -.01635134  00000+0 -12585-1 0  9990
2 59688  43.0020 233.6246 0001199 259.9499 127.0415 15.73929300  2427
STARLINK-32105          
1 59689U 24086H   24138.16667824 -.01685585  00000+0 -13003-1 0  9992
2 59689  43.0025 233.6197 0001439 259.2479 129.7284 15.73964506  2426
STARLINK-32106          
1 59690U 24086J   24138.16667824 -.01691551  00000+0 -13054-1 0  9990
2 59690  43.0023 233.6101 0001825 272.7696 120.2109 15.73962149  2424
STARLINK-32090          
1 59691U 24086K   24138.16667824 -.01770529  00000+0 -13716-1 0  9999
2 59691  43.0023 233.6150 0001281 282.0053 108.9469 15.74023369  2319
STARLINK-32095          
1 59692U 24086L   24138.16667824 -.01693902  00000+0 -13077-1 0  9999
2 59692  43.0023 233.6048 0001747 281.9324 113.0519 15.73958774  2423
